HULIANWANG DIGUI-01     
1 62323U 24240A   26064.27062360  .00000077  00000+0  14505-3 0  9993
2 62323  86.5030  18.2712 0001945  85.9519 274.1838 13.24420543 58887
HULIANWANG DIGUI-02     
1 62324U 24240B   26064.27808493  .00000084  00000+0  16144-3 0  9998
2 62324  86.5059  18.3986 0001872  89.6070 270.5279 13.24422175 58898
HULIANWANG DIGUI-03     
1 62325U 24240C   26064.26295214  .00000049  00000+0  79165-4 0  9993
2 62325  86.5012  18.1933 0002023  84.7805 275.3560 13.24422047 58882
HULIANWANG DIGUI-04     
1 62326U 24240D   26064.25543044  .00000043  00000+0  67044-4 0  9997
2 62326  86.5022  18.2276 0002050  85.4123 274.7246 13.24421760 58881
HULIANWANG DIGUI-05     
1 62327U 24240E   26064.17237631  .00000033  00000+0  43452-4 0  9997
2 62327  86.5073  18.4750 0002080  84.4369 275.7003 13.24420993 58879
HULIANWANG DIGUI-06     
1 62328U 24240F   26064.30826209  .00000038  00000+0  54593-4 0  9991
2 62328  86.5012  18.1480 0002033  88.7382 271.3985 13.24422975 58895
HULIANWANG DIGUI-07     
1 62329U 24240G   26064.30080428  .00000048  00000+0  77672-4 0  9991
2 62329  86.4983  18.0187 0002016  87.0541 273.0824 13.24421105 58890
HULIANWANG DIGUI-08     
1 62330U 24240H   26064.24038592  .00000036  00000+0  50423-4 0  9993
2 62330  86.5065  18.4095 0002126  85.5846 274.5531 13.24420959 58885
HULIANWANG DIGUI-09     
1 62331U 24240J   26064.29317800  .00000057  00000+0  98079-4 0  9993
2 62331  86.5032  18.2869 0001974  88.9508 271.1852 13.24422309 58889
HULIANWANG DIGUI-10     
1 62332U 24240K   26064.28566370  .00000075  00000+0  14054-3 0  9991
2 62332  86.5062  18.4119 0001969  90.9272 269.2087 13.24421717 58888
HULIANWANG DIGUI-11     
1 62971U 25030A   26064.26213451 -.00000085  00000+0  85004-4 0  9991
2 62971  49.9992 248.5784 0000739 167.1411 192.9480 13.29337768 52039
HULIANWANG DIGUI-12     
1 62972U 25030B   26064.27037517 -.00000092  00000+0  68729-4 0  9993
2 62972  50.0008 248.6678 0000892 162.6278 197.4625 13.29339918 52035
HULIANWANG DIGUI-13     
1 62973U 25030C   26064.25374911 -.00000086  00000+0  82799-4 0  9990
2 62973  50.0011 248.5931 0000711 153.7674 206.3235 13.29337897 52033
HULIANWANG DIGUI-14     
1 62974U 25030D   26064.22874812 -.00000084  00000+0  86171-4 0  9999
2 62974  50.0017 248.4810 0000795 153.0404 207.0509 13.29337751 52032
HULIANWANG DIGUI-15     
1 62975U 25030E   26064.24543108 -.00000082  00000+0  90797-4 0  9990
2 62975  50.0012 248.5525 0000689 160.8750 199.2148 13.29337918 52030
HULIANWANG DIGUI-16     
1 62976U 25030F   26064.14516571 -.00000092  00000+0  68691-4 0  9993
2 62976  50.0034 248.7599 0000796 150.5029 209.5889 13.29338437 52025
