[{"OBJECT_NAME":"HULIANWANG DIGUI-01","OBJECT_ID":"2024-240A","EPOCH":"2026-03-05T06:29:41.879040","MEAN_MOTION":13.24420543,"ECCENTRICITY":0.00019454,"INCLINATION":86.503,"RA_OF_ASC_NODE":18.2712,"ARG_OF_PERICENTER":85.9519,"MEAN_ANOMALY":274.1838,"EPHEMERIS_TYPE":0,"CLASSIFICATION_TYPE":"U","NORAD_CAT_ID":62323,"ELEMENT_SET_NO":999,"REV_AT_EPOCH":5888,"BSTAR":0.0001450517,"MEAN_MOTION_DOT":7.7e-7,"MEAN_MOTION_DDOT":0},{"OBJECT_NAME":"HULIANWANG DIGUI-02","OBJECT_ID":"2024-240B","EPOCH":"2026-03-05T06:40:26.537952","MEAN_MOTION":13.24422175,"ECCENTRICITY":0.00018721,"INCLINATION":86.5059,"RA_OF_ASC_NODE":18.3986,"ARG_OF_PERICENTER":89.607,"MEAN_ANOMALY":270.5279,"EPHEMERIS_TYPE":0,"CLASSIFICATION_TYPE":"U","NORAD_CAT_ID":62324,"ELEMENT_SET_NO":999,"REV_AT_EPOCH":5889,"BSTAR":0.00016143691,"MEAN_MOTION_DOT":8.4e-7,"MEAN_MOTION_DDOT":0},{"OBJECT_NAME":"HULIANWANG DIGUI-03","OBJECT_ID":"2024-240C","EPOCH":"2026-03-05T06:18:39.064896","MEAN_MOTION":13.24422047,"ECCENTRICITY":0.00020237,"INCLINATION":86.5012,"RA_OF_ASC_NODE":18.1933,"ARG_OF_PERICENTER":84.7805,"MEAN_ANOMALY":275.356,"EPHEMERIS_TYPE":0,"CLASSIFICATION_TYPE":"U","NORAD_CAT_ID":62325,"ELEMENT_SET_NO":999,"REV_AT_EPOCH":5888,"BSTAR":7.9164638e-5,"MEAN_MOTION_DOT":4.9e-7,"MEAN_MOTION_DDOT":0},{"OBJECT_NAME":"HULIANWANG DIGUI-04","OBJECT_ID":"2024-240D","EPOCH":"2026-03-05T06:07:49.190016","MEAN_MOTION":13.2442176,"ECCENTRICITY":0.00020508,"INCLINATION":86.5022,"RA_OF_ASC_NODE":18.2276,"ARG_OF_PERICENTER":85.4123,"MEAN_ANOMALY":274.7246,"EPHEMERIS_TYPE":0,"CLASSIFICATION_TYPE":"U","NORAD_CAT_ID":62326,"ELEMENT_SET_NO":999,"REV_AT_EPOCH":5888,"BSTAR":6.7044034e-5,"MEAN_MOTION_DOT":4.3e-7,"MEAN_MOTION_DDOT":0},{"OBJECT_NAME":"HULIANWANG DIGUI-05","OBJECT_ID":"2024-240E","EPOCH":"2026-03-05T04:08:13.313184","MEAN_MOTION":13.24420993,"ECCENTRICITY":0.00020801,"INCLINATION":86.5073,"RA_OF_ASC_NODE":18.475,"ARG_OF_PERICENTER":84.4369,"MEAN_ANOMALY":275.7003,"EPHEMERIS_TYPE":0,"CLASSIFICATION_TYPE":"U","NORAD_CAT_ID":62327,"ELEMENT_SET_NO":999,"REV_AT_EPOCH":5887,"BSTAR":4.3452086e-5,"MEAN_MOTION_DOT":3.3e-7,"MEAN_MOTION_DDOT":0},{"OBJECT_NAME":"HULIANWANG DIGUI-06","OBJECT_ID":"2024-240F","EPOCH":"2026-03-05T07:23:53.844576","MEAN_MOTION":13.24422975,"ECCENTRICITY":0.00020338,"INCLINATION":86.5012,"RA_OF_ASC_NODE":18.148,"ARG_OF_PERICENTER":88.7382,"MEAN_ANOMALY":271.3985,"EPHEMERIS_TYPE":0,"CLASSIFICATION_TYPE":"U","NORAD_CAT_ID":62328,"ELEMENT_SET_NO":999,"REV_AT_EPOCH":5889,"BSTAR":5.4593244e-5,"MEAN_MOTION_DOT":3.8e-7,"MEAN_MOTION_DDOT":0},{"OBJECT_NAME":"HULIANWANG DIGUI-07","OBJECT_ID":"2024-240G","EPOCH":"2026-03-05T07:13:09.489792","MEAN_MOTION":13.24421105,"ECCENTRICITY":0.00020167,"INCLINATION":86.4983,"RA_OF_ASC_NODE":18.0187,"ARG_OF_PERICENTER":87.0541,"MEAN_ANOMALY":273.0824,"EPHEMERIS_TYPE":0,"CLASSIFICATION_TYPE":"U","NORAD_CAT_ID":62329,"ELEMENT_SET_NO":999,"REV_AT_EPOCH":5889,"BSTAR":7.7672098e-5,"MEAN_MOTION_DOT":4.8e-7,"MEAN_MOTION_DDOT":0},{"OBJECT_NAME":"HULIANWANG DIGUI-08","OBJECT_ID":"2024-240H","EPOCH":"2026-03-05T05:46:09.343488","MEAN_MOTION":13.24420959,"ECCENTRICITY":0.00021269,"INCLINATION":86.5065,"RA_OF_ASC_NODE":18.4095,"ARG_OF_PERICENTER":85.5846,"MEAN_ANOMALY":274.5531,"EPHEMERIS_TYPE":0,"CLASSIFICATION_TYPE":"U","NORAD_CAT_ID":62330,"ELEMENT_SET_NO":999,"REV_AT_EPOCH":5888,"BSTAR":5.0422541e-5,"MEAN_MOTION_DOT":3.6e-7,"MEAN_MOTION_DDOT":0},{"OBJECT_NAME":"HULIANWANG DIGUI-09","OBJECT_ID":"2024-240J","EPOCH":"2026-03-05T07:02:10.579200","MEAN_MOTION":13.24422309,"ECCENTRICITY":0.00019749,"INCLINATION":86.5032,"RA_OF_ASC_NODE":18.2869,"ARG_OF_PERICENTER":88.9508,"MEAN_ANOMALY":271.1852,"EPHEMERIS_TYPE":0,"CLASSIFICATION_TYPE":"U","NORAD_CAT_ID":62331,"ELEMENT_SET_NO":999,"REV_AT_EPOCH":5888,"BSTAR":9.8079158e-5,"MEAN_MOTION_DOT":5.7e-7,"MEAN_MOTION_DDOT":0},{"OBJECT_NAME":"HULIANWANG DIGUI-10","OBJECT_ID":"2024-240K","EPOCH":"2026-03-05T06:51:21.343680","MEAN_MOTION":13.24421717,"ECCENTRICITY":0.0001969,"INCLINATION":86.5062,"RA_OF_ASC_NODE":18.4119,"ARG_OF_PERICENTER":90.9272,"MEAN_ANOMALY":269.2087,"EPHEMERIS_TYPE":0,"CLASSIFICATION_TYPE":"U","NORAD_CAT_ID":62332,"ELEMENT_SET_NO":999,"REV_AT_EPOCH":5888,"BSTAR":0.00014053565,"MEAN_MOTION_DOT":7.5e-7,"MEAN_MOTION_DDOT":0},{"OBJECT_NAME":"HULIANWANG DIGUI-11","OBJECT_ID":"2025-030A","EPOCH":"2026-03-05T06:17:28.421664","MEAN_MOTION":13.29337768,"ECCENTRICITY":7.398e-5,"INCLINATION":49.9992,"RA_OF_ASC_NODE":248.5784,"ARG_OF_PERICENTER":167.1411,"MEAN_ANOMALY":192.948,"EPHEMERIS_TYPE":0,"CLASSIFICATION_TYPE":"U","NORAD_CAT_ID":62971,"ELEMENT_SET_NO":999,"REV_AT_EPOCH":5203,"BSTAR":8.5004166e-5,"MEAN_MOTION_DOT":-8.5e-7,"MEAN_MOTION_DDOT":0},{"OBJECT_NAME":"HULIANWANG DIGUI-12","OBJECT_ID":"2025-030B","EPOCH":"2026-03-05T06:29:20.414688","MEAN_MOTION":13.29339918,"ECCENTRICITY":8.929e-5,"INCLINATION":50.0008,"RA_OF_ASC_NODE":248.6678,"ARG_OF_PERICENTER":162.6278,"MEAN_ANOMALY":197.4625,"EPHEMERIS_TYPE":0,"CLASSIFICATION_TYPE":"U","NORAD_CAT_ID":62972,"ELEMENT_SET_NO":999,"REV_AT_EPOCH":5203,"BSTAR":6.8728889e-5,"MEAN_MOTION_DOT":-9.2e-7,"MEAN_MOTION_DDOT":0},{"OBJECT_NAME":"HULIANWANG DIGUI-13","OBJECT_ID":"2025-030C","EPOCH":"2026-03-05T06:05:23.923104","MEAN_MOTION":13.29337897,"ECCENTRICITY":7.111e-5,"INCLINATION":50.0011,"RA_OF_ASC_NODE":248.5931,"ARG_OF_PERICENTER":153.7674,"MEAN_ANOMALY":206.3235,"EPHEMERIS_TYPE":0,"CLASSIFICATION_TYPE":"U","NORAD_CAT_ID":62973,"ELEMENT_SET_NO":999,"REV_AT_EPOCH":5203,"BSTAR":8.2798847e-5,"MEAN_MOTION_DOT":-8.6e-7,"MEAN_MOTION_DDOT":0},{"OBJECT_NAME":"HULIANWANG DIGUI-14","OBJECT_ID":"2025-030D","EPOCH":"2026-03-05T05:29:23.837568","MEAN_MOTION":13.29337751,"ECCENTRICITY":7.95e-5,"INCLINATION":50.0017,"RA_OF_ASC_NODE":248.481,"ARG_OF_PERICENTER":153.0404,"MEAN_ANOMALY":207.0509,"EPHEMERIS_TYPE":0,"CLASSIFICATION_TYPE":"U","NORAD_CAT_ID":62974,"ELEMENT_SET_NO":999,"REV_AT_EPOCH":5203,"BSTAR":8.6170656e-5,"MEAN_MOTION_DOT":-8.4e-7,"MEAN_MOTION_DDOT":0},{"OBJECT_NAME":"HULIANWANG DIGUI-15","OBJECT_ID":"2025-030E","EPOCH":"2026-03-05T05:53:25.245312","MEAN_MOTION":13.29337918,"ECCENTRICITY":6.892e-5,"INCLINATION":50.0012,"RA_OF_ASC_NODE":248.5525,"ARG_OF_PERICENTER":160.875,"MEAN_ANOMALY":199.2148,"EPHEMERIS_TYPE":0,"CLASSIFICATION_TYPE":"U","NORAD_CAT_ID":62975,"ELEMENT_SET_NO":999,"REV_AT_EPOCH":5203,"BSTAR":9.0797412e-5,"MEAN_MOTION_DOT":-8.2e-7,"MEAN_MOTION_DDOT":0},{"OBJECT_NAME":"HULIANWANG DIGUI-16","OBJECT_ID":"2025-030F","EPOCH":"2026-03-05T03:29:02.317344","MEAN_MOTION":13.29338437,"ECCENTRICITY":7.965e-5,"INCLINATION":50.0034,"RA_OF_ASC_NODE":248.7599,"ARG_OF_PERICENTER":150.5029,"MEAN_ANOMALY":209.5889,"EPHEMERIS_TYPE":0,"CLASSIFICATION_TYPE":"U","NORAD_CAT_ID":62976,"ELEMENT_SET_NO":999,"REV_AT_EPOCH":5202,"BSTAR":6.8691087e-5,"MEAN_MOTION_DOT":-9.2e-7,"MEAN_MOTION_DDOT":0}]
